{
    "cafes": [
        {
            "id": 1,
            "name": "Helsingin Kahvipaahtimo",
            "address": "P\u00e4ij\u00e4nteentie 29",
            "zip_code": "00510",
            "city": "Helsinki",
            "roastery": "Helsingin Kahvipaahtimo"
        },
        {
            "id": 2,
            "name": "Helsingin Kahvipaahtimo",
            "address": "Ty\u00f6pajankatu 2",
            "zip_code": "00580",
            "city": "Helsinki",
            "roastery": "Helsingin Kahvipaahtimo"
        },
        {
            "id": 3,
            "name": "Paulig Kulma",
            "address": "Aleksanterinkatu 9",
            "zip_code": "00130",
            "city": "Helsinki",
            "roastery": "Paulig"
        },
        {
            "id": 4,
            "name": "Johan och Nystr\u00f6m",
            "address": "Kanavaranta 7",
            "zip_code": "00160",
            "city": "Helsinki",
            "roastery": "Johan och Nystr\u00f6m"
        },
        {
            "id": 5,
            "name": "Cafe Peque\u00f1o",
            "address": "Vaasankatu 11",
            "zip_code": "00500",
            "city": "Helsinki",
            "roastery": ""
        },
        {
            "id": 6,
            "name": "El Fant Coffee & Wine Bar",
            "address": "Katariinankatu 3",
            "zip_code": "00170",
            "city": "Helsinki",
            "roastery": "Good Life Coffee"
        },
        {
            "id": 7,
            "name": "Outrun Pasila",
            "address": "Asemap\u00e4\u00e4llik\u00f6nkatu 3",
            "zip_code": "00520",
            "city": "Helsinki",
            "roastery": "Good Life Coffee"
        },
        {
            "id": 8,
            "name": "Kaffecentralen",
            "address": "Fredrikinkatu 59",
            "zip_code": "00100",
            "city": "Helsinki",
            "roastery": ""
        },
        {
            "id": 9,
            "name": "Andante",
            "address": "Fredrikinkatu 20",
            "zip_code": "00120",
            "city": "Helsinki",
            "roastery": ""
        },
        {
            "id": 10,
            "name": "Fl\u00e4t no14",
            "address": "Viides linja 14",
            "zip_code": "00530",
            "city": "Helsinki",
            "roastery": "Good Life Coffee"
        },
        {
            "id": 11,
            "name": "Way Bakery",
            "address": "Agricolankatu 5",
            "zip_code": "00530",
            "city": "Helsinki",
            "roastery": "Good Life Coffee"
        },
        {
            "id": 12,
            "name": "Kavila S\u00e4vy",
            "address": "Aleksis Kiven katu 12",
            "zip_code": "00500",
            "city": "Helsinki",
            "roastery": "Good Life Coffee"
        },
        {
            "id": 13,
            "name": "Cafetoria roastery",
            "address": "Runeberginkatu 31",
            "zip_code": "00100",
            "city": "Helsinki",
            "roastery": "Cafetoria"
        },
        {
            "id": 14,
            "name": "Caf\u00e9 Aalto",
            "address": "Otaniementie 14",
            "zip_code": "02150",
            "city": "Espoo",
            "roastery": "Cafetoria"
        },
        {
            "id": 15,
            "name": "Artisan Caf\u00e9",
            "address": "Capellan Puistotie 15",
            "zip_code": "00580",
            "city": "Helsinki",
            "roastery": ""
        },
        {
            "id": 16,
            "name": "Maja Coffee Roastery",
            "address": "Lehtisaarentie 1",
            "zip_code": "00340",
            "city": "Helsinki",
            "roastery": ""
        },
        {
            "id": 17,
            "name": "We Got This",
            "address": "Albertinkatu 10",
            "zip_code": "00150",
            "city": "Helsinki",
            "roastery": ""
        },
        {
            "id": 18,
            "name": "Rams Roastery",
            "address": "Neitsytpolku 10",
            "zip_code": "00140",
            "city": "Helsinki",
            "roastery": ""
        },
        {
            "id": 19,
            "name": "Caf\u00e9 Charlotta",
            "address": "Ruuneberginkatu 5",
            "zip_code": "00100",
            "city": "Helsinki",
            "roastery": ""
        },
        {
            "id": 20,
            "name": "John's Coffee",
            "address": "Firdonkatu 2",
            "zip_code": "00520",
            "city": "Helsinki",
            "roastery": ""
        }
    ]
}